OBJECT_NAME,OBJECT_ID,EPOCH,MEAN_MOTION,ECCENTRICITY,INCLINATION,RA_OF_ASC_NODE,ARG_OF_PERICENTER,MEAN_ANOMALY,EPHEMERIS_TYPE,CLASSIFICATION_TYPE,NORAD_CAT_ID,ELEMENT_SET_NO,REV_AT_EPOCH,BSTAR,MEAN_MOTION_DOT,MEAN_MOTION_DDOT
SZ-21 MODULE,2025-246C,2026-07-11T21:44:53.526048,15.78573776,.0007517,41.4695,153.1215,198.3758,161.6817,0,U,66515,999,3764,.19568E-3,.34985E-3,0
SPACEMOBILE-006,2025-309A,2026-07-12T02:49:34.428576,15.18648870,.0010354,52.9937,217.4329,205.0874,154.9618,0,U,67232,999,3038,.29209E-4,.291E-5,0
SPACEMOBILE-008,2026-139A,2026-07-12T01:08:45.878208,15.12799678,.0004916,52.9943,149.6970,49.0948,311.0468,0,U,69589,999,374,.15283E-4,-.3E-6,0
SPACEMOBILE-009,2026-139B,2026-07-11T23:36:07.749792,15.12692851,.0005147,52.9935,150.0027,44.4702,315.6701,0,U,69590,999,373,.14462E-4,-.45E-6,0
SPACEMOBILE-010,2026-139C,2026-07-12T01:15:14.919264,15.12524086,.0005071,52.9940,149.7225,36.2612,323.8722,0,U,69591,999,375,.14365E-4,-.48E-6,0
